{
  "type": "FeatureCollection",
  "features": [
    {
      "type": "Feature",
      "properties": {
        "norad_id": 30103,
        "name": "FENGYUN 1C DEB",
        "group": "fengyun-1c-debris",
        "lat": -25.308248285695953,
        "lon": -32.18357280678279,
        "alt_km": 857.2380561703358,
        "timestamp": "2025-12-08T03:50:07.271019+00:00",
        "meta_object_name": "FENGYUN 1C DEB",
        "meta_object_id": "1999-025RG",
        "meta_epoch": "2025-12-06T21:52:27.926976",
        "meta_mean_motion": 14.24839567,
        "meta_eccentricity": 0.0063944,
        "meta_inclination": 99.2443,
        "meta_ra_of_asc_node": 322.0858,
        "meta_arg_of_pericenter": 136.3399,
        "meta_mean_anomaly": 278.5056,
        "meta_ephemeris_type": 0,
        "meta_classification_type": "U",
        "meta_norad_cat_id": 30103,
        "meta_element_set_no": 999,
        "meta_rev_at_epoch": 97836,
        "meta_bstar": 0.00071396259,
        "meta_mean_motion_dot": 1.654e-05,
        "meta_mean_motion_ddot": 0,
        "tle_line1": "1 30103U 99025RG  25340.91143434  .00001654  00000+0  71396-3 0  9999",
        "tle_line2": "2 30103  99.2443 322.0858 0063944 136.3399 278.5056 14.24839567978363"
      },
      "geometry": {
        "type": "Point",
        "coordinates": [
          -32.18357280678279,
          -25.308248285695953
        ]
      }
    },
    {
      "type": "Feature",
      "properties": {
        "norad_id": 30104,
        "name": "FENGYUN 1C DEB",
        "group": "fengyun-1c-debris",
        "lat": 10.509367847705226,
        "lon": 0.9991145225565649,
        "alt_km": 771.8637791085057,
        "timestamp": "2025-12-08T03:50:07.271046+00:00",
        "meta_object_name": "FENGYUN 1C DEB",
        "meta_object_id": "1999-025RH",
        "meta_epoch": "2025-12-07T07:40:20.219808",
        "meta_mean_motion": 14.25640399,
        "meta_eccentricity": 0.007386,
        "meta_inclination": 98.3595,
        "meta_ra_of_asc_node": 178.6349,
        "meta_arg_of_pericenter": 124.0208,
        "meta_mean_anomaly": 55.2847,
        "meta_ephemeris_type": 0,
        "meta_classification_type": "U",
        "meta_norad_cat_id": 30104,
        "meta_element_set_no": 999,
        "meta_rev_at_epoch": 97815,
        "meta_bstar": 0.0011706627,
        "meta_mean_motion_dot": 2.815e-05,
        "meta_mean_motion_ddot": 0,
        "tle_line1": "1 30104U 99025RH  25341.31967847  .00002815  00000+0  11707-2 0  9996",
        "tle_line2": "2 30104  98.3595 178.6349 0073860 124.0208  55.2847 14.25640399978152"
      },
      "geometry": {
        "type": "Point",
        "coordinates": [
          0.9991145225565649,
          10.509367847705226
        ]
      }
    },
    {
      "type": "Feature",
      "properties": {
        "norad_id": 30105,
        "name": "FENGYUN 1C DEB",
        "group": "fengyun-1c-debris",
        "lat": -14.640585012240916,
        "lon": -29.412206476224856,
        "alt_km": 852.059264442857,
        "timestamp": "2025-12-08T03:50:07.271058+00:00",
        "meta_object_name": "FENGYUN 1C DEB",
        "meta_object_id": "1999-025RJ",
        "meta_epoch": "2025-12-06T21:29:41.790912",
        "meta_mean_motion": 14.21383354,
        "meta_eccentricity": 0.01998148,
        "meta_inclination": 98.5931,
        "meta_ra_of_asc_node": 327.0927,
        "meta_arg_of_pericenter": 90.817,
        "meta_mean_anomaly": 271.5907,
        "meta_ephemeris_type": 0,
        "meta_classification_type": "U",
        "meta_norad_cat_id": 30105,
        "meta_element_set_no": 999,
        "meta_rev_at_epoch": 97679,
        "meta_bstar": 0.00049152203,
        "meta_mean_motion_dot": 1.271e-05,
        "meta_mean_motion_ddot": 0,
        "tle_line1": "1 30105U 99025RJ  25340.89562258  .00001271  00000+0  49152-3 0  9997",
        "tle_line2": "2 30105  98.5931 327.0927 0199814  90.8170 271.5907 14.21383354976796"
      },
      "geometry": {
        "type": "Point",
        "coordinates": [
          -29.412206476224856,
          -14.640585012240916
        ]
      }
    },
    {
      "type": "Feature",
      "properties": {
        "norad_id": 30106,
        "name": "FENGYUN 1C DEB",
        "group": "fengyun-1c-debris",
        "lat": 5.458382708867175,
        "lon": -111.90270320930856,
        "alt_km": 646.2550142143391,
        "timestamp": "2025-12-08T03:50:07.271069+00:00",
        "meta_object_name": "FENGYUN 1C DEB",
        "meta_object_id": "1999-025RK",
        "meta_epoch": "2025-12-07T05:50:46.737600",
        "meta_mean_motion": 14.84510036,
        "meta_eccentricity": 0.00476493,
        "meta_inclination": 98.9238,
        "meta_ra_of_asc_node": 247.9331,
        "meta_arg_of_pericenter": 216.9887,
        "meta_mean_anomaly": 294.6743,
        "meta_ephemeris_type": 0,
        "meta_classification_type": "U",
        "meta_norad_cat_id": 30106,
        "meta_element_set_no": 999,
        "meta_rev_at_epoch": 98463,
        "meta_bstar": 0.007228,
        "meta_mean_motion_dot": 0.00062627,
        "meta_mean_motion_ddot": 0,
        "tle_line1": "1 30106U 99025RK  25341.24359650  .00062627  00000+0  72280-2 0  9997",
        "tle_line2": "2 30106  98.9238 247.9331 0047649 216.9887 294.6743 14.84510036984638"
      },
      "geometry": {
        "type": "Point",
        "coordinates": [
          -111.90270320930856,
          5.458382708867175
        ]
      }
    },
    {
      "type": "Feature",
      "properties": {
        "norad_id": 30107,
        "name": "FENGYUN 1C DEB",
        "group": "fengyun-1c-debris",
        "lat": 12.038399634146828,
        "lon": 37.21742337766836,
        "alt_km": 834.0455342030282,
        "timestamp": "2025-12-08T03:50:07.271079+00:00",
        "meta_object_name": "FENGYUN 1C DEB",
        "meta_object_id": "1999-025RL",
        "meta_epoch": "2025-12-07T02:18:43.112448",
        "meta_mean_motion": 14.14417391,
        "meta_eccentricity": 0.01262479,
        "meta_inclination": 98.8478,
        "meta_ra_of_asc_node": 38.0674,
        "meta_arg_of_pericenter": 291.8188,
        "meta_mean_anomaly": 66.9595,
        "meta_ephemeris_type": 0,
        "meta_classification_type": "U",
        "meta_norad_cat_id": 30107,
        "meta_element_set_no": 999,
        "meta_rev_at_epoch": 97481,
        "meta_bstar": 0.00017654219,
        "meta_mean_motion_dot": 3.19e-06,
        "meta_mean_motion_ddot": 0,
        "tle_line1": "1 30107U 99025RL  25341.09633232  .00000319  00000+0  17654-3 0  9997",
        "tle_line2": "2 30107  98.8478  38.0674 0126247 291.8188  66.9595 14.14417391974818"
      },
      "geometry": {
        "type": "Point",
        "coordinates": [
          37.21742337766836,
          12.038399634146828
        ]
      }
    },
    {
      "type": "Feature",
      "properties": {
        "norad_id": 30108,
        "name": "FENGYUN 1C DEB",
        "group": "fengyun-1c-debris",
        "lat": -47.94162869177581,
        "lon": 138.40438837979718,
        "alt_km": 980.5414933856391,
        "timestamp": "2025-12-08T03:50:07.271089+00:00",
        "meta_object_name": "FENGYUN 1C DEB",
        "meta_object_id": "1999-025RM",
        "meta_epoch": "2025-12-06T22:14:45.913056",
        "meta_mean_motion": 14.17155627,
        "meta_eccentricity": 0.01978832,
        "meta_inclination": 98.6598,
        "meta_ra_of_asc_node": 326.9273,
        "meta_arg_of_pericenter": 38.8314,
        "meta_mean_anomaly": 23.9412,
        "meta_ephemeris_type": 0,
        "meta_classification_type": "U",
        "meta_norad_cat_id": 30108,
        "meta_element_set_no": 999,
        "meta_rev_at_epoch": 97516,
        "meta_bstar": 0.0005864546,
        "meta_mean_motion_dot": 1.389e-05,
        "meta_mean_motion_ddot": 0,
        "tle_line1": "1 30108U 99025RM  25340.92692029  .00001389  00000+0  58645-3 0  9991",
        "tle_line2": "2 30108  98.6598 326.9273 0197883  38.8314  23.9412 14.17155627975162"
      },
      "geometry": {
        "type": "Point",
        "coordinates": [
          138.40438837979718,
          -47.94162869177581
        ]
      }
    },
    {
      "type": "Feature",
      "properties": {
        "norad_id": 30109,
        "name": "FENGYUN 1C DEB",
        "group": "fengyun-1c-debris",
        "lat": -24.037302852581142,
        "lon": -20.30998234031992,
        "alt_km": 837.25962448884,
        "timestamp": "2025-12-08T03:50:07.271100+00:00",
        "meta_object_name": "FENGYUN 1C DEB",
        "meta_object_id": "1999-025RN",
        "meta_epoch": "2025-12-06T23:25:07.157856",
        "meta_mean_motion": 14.17533839,
        "meta_eccentricity": 0.01671588,
        "meta_inclination": 98.5073,
        "meta_ra_of_asc_node": 334.728,
        "meta_arg_of_pericenter": 249.1481,
        "meta_mean_anomaly": 165.892,
        "meta_ephemeris_type": 0,
        "meta_classification_type": "U",
        "meta_norad_cat_id": 30109,
        "meta_element_set_no": 999,
        "meta_rev_at_epoch": 97470,
        "meta_bstar": 0.0006661002,
        "meta_mean_motion_dot": 1.508e-05,
        "meta_mean_motion_ddot": 0,
        "tle_line1": "1 30109U 99025RN  25340.97577729  .00001508  00000+0  66610-3 0  9990",
        "tle_line2": "2 30109  98.5073 334.7280 0167158 249.1481 165.8920 14.17533839974703"
      },
      "geometry": {
        "type": "Point",
        "coordinates": [
          -20.30998234031992,
          -24.037302852581142
        ]
      }
    }
  ]
}